{"type": "FeatureCollection", "features": [ {"type": "Feature", "properties": {"norad_id": 31378, "name": "FENGYUN 1C DEB", "group": "fengyun-1c-debris", "lat": 24.24517444377658, "lon": 71.36885011553899, "alt_km": 845.4832863214051, "timestamp": "2025-12-22T05:49:03.781813+00:00", "meta": {"OBJECT_NAME": "FENGYUN 1C DEB", "OBJECT_ID": "1999-025BSJ", "EPOCH": "2025-12-15T23:25:55.260192", "MEAN_MOTION": 13.80081198, "ECCENTRICITY": 0.01683642, "INCLINATION": 100.7566, "RA_OF_ASC_NODE": 239.3423, "ARG_OF_PERICENTER": 189.6652, "MEAN_ANOMALY": 170.1243, "EPHEMERIS_TYPE": 0, "CLASSIFICATION_TYPE": "U", "NORAD_CAT_ID": 31378, "ELEMENT_SET_NO": 999, "REV_AT_EPOCH": 94268, "BSTAR": 0.00064817453, "MEAN_MOTION_DOT": 6.94e-06, "MEAN_MOTION_DDOT": 0}, "tle": {"line1": "1 31378U 99025BSJ 25349.97633403  .00000694  00000+0  64817-3 0  9992", "line2": "2 31378 100.7566 239.3423 0168364 189.6652 170.1243 13.80081198942686"}}, "geometry": {"type": "Point", "coordinates": [71.36885011553899, 24.24517444377658]}}, {"type": "Feature", "properties": {"norad_id": 31381, "name": "FENGYUN 1C DEB", "group": "fengyun-1c-debris", "lat": -0.15414021131320316, "lon": -100.4950183297788, "alt_km": 912.3917408482303, "timestamp": "2025-12-22T05:49:03.781823+00:00", "meta": {"OBJECT_NAME": "FENGYUN 1C DEB", "OBJECT_ID": "1999-025BSM", "EPOCH": "2025-12-21T12:16:26.163552", "MEAN_MOTION": 14.37063903, "ECCENTRICITY": 0.01979728, "INCLINATION": 98.4916, "RA_OF_ASC_NODE": 78.8062, "ARG_OF_PERICENTER": 5.8187, "MEAN_ANOMALY": 354.5233, "EPHEMERIS_TYPE": 0, "CLASSIFICATION_TYPE": "U", "NORAD_CAT_ID": 31381, "ELEMENT_SET_NO": 999, "REV_AT_EPOCH": 97526, "BSTAR": 0.00025471103, "MEAN_MOTION_DOT": 8.96e-06, "MEAN_MOTION_DDOT": 0}, "tle": {"line1": "1 31381U 99025BSM 25355.51141393  .00000896  00000+0  25471-3 0  9992", "line2": "2 31381  98.4916  78.8062 0197972   5.8187 354.5233 14.37063903975260"}}, "geometry": {"type": "Point", "coordinates": [-100.4950183297788, -0.15414021131320316]}}, {"type": "Feature", "properties": {"norad_id": 31383, "name": "FENGYUN 1C DEB", "group": "fengyun-1c-debris", "lat": -40.76185997555221, "lon": -129.72983347667545, "alt_km": 852.423517366602, "timestamp": "2025-12-22T05:49:03.781834+00:00", "meta": {"OBJECT_NAME": "FENGYUN 1C DEB", "OBJECT_ID": "1999-025BSP", "EPOCH": "2025-12-17T10:22:17.465376", "MEAN_MOTION": 14.05711597, "ECCENTRICITY": 0.01077198, "INCLINATION": 99.0662, "RA_OF_ASC_NODE": 53.3693, "ARG_OF_PERICENTER": 304.1704, "MEAN_ANOMALY": 68.9908, "EPHEMERIS_TYPE": 0, "CLASSIFICATION_TYPE": "U", "NORAD_CAT_ID": 31383, "ELEMENT_SET_NO": 999, "REV_AT_EPOCH": 95435, "BSTAR": 0.00049128566, "MEAN_MOTION_DOT": 7.98e-06, "MEAN_MOTION_DDOT": 0}, "tle": {"line1": "1 31383U 99025BSP 25351.43214659  .00000798  00000+0  49129-3 0  9994", "line2": "2 31383  99.0662  53.3693 0107719 304.1704  68.9908 14.05711597954351"}}, "geometry": {"type": "Point", "coordinates": [-129.72983347667545, -40.76185997555221]}}, {"type": "Feature", "properties": {"norad_id": 31384, "name": "FENGYUN 1C DEB", "group": "fengyun-1c-debris", "lat": -31.636540165959506, "lon": -33.31821378613384, "alt_km": 722.541196687469, "timestamp": "2025-12-22T05:49:03.781845+00:00", "meta": {"OBJECT_NAME": "FENGYUN 1C DEB", "OBJECT_ID": "1999-025BSQ", "EPOCH": "2025-12-19T20:55:42.075264", "MEAN_MOTION": 13.86211171, "ECCENTRICITY": 0.0440283, "INCLINATION": 98.4566, "RA_OF_ASC_NODE": 319.2731, "ARG_OF_PERICENTER": 22.0866, "MEAN_ANOMALY": 6.9632, "EPHEMERIS_TYPE": 0, "CLASSIFICATION_TYPE": "U", "NORAD_CAT_ID": 31384, "ELEMENT_SET_NO": 999, "REV_AT_EPOCH": 93123, "BSTAR": 0.0018494, "MEAN_MOTION_DOT": 4.557e-05, "MEAN_MOTION_DDOT": 0}, "tle": {"line1": "1 31384U 99025BSQ 25353.87201476  .00004557  00000+0  18494-2 0  9995", "line2": "2 31384  98.4566 319.2731 0440283  22.0866   6.9632 13.86211171931235"}}, "geometry": {"type": "Point", "coordinates": [-33.31821378613384, -31.636540165959506]}}, {"type": "Feature", "properties": {"norad_id": 31385, "name": "FENGYUN 1C DEB", "group": "fengyun-1c-debris", "lat": -59.98406747383495, "lon": 102.72715896775638, "alt_km": 748.7442768338497, "timestamp": "2025-12-22T05:49:03.781855+00:00", "meta": {"OBJECT_NAME": "FENGYUN 1C DEB", "OBJECT_ID": "1999-025BSR", "EPOCH": "2025-12-21T00:58:28.944192", "MEAN_MOTION": 14.44006366, "ECCENTRICITY": 0.0134243, "INCLINATION": 98.9535, "RA_OF_ASC_NODE": 85.6264, "ARG_OF_PERICENTER": 30.9837, "MEAN_ANOMALY": 145.533, "EPHEMERIS_TYPE": 0, "CLASSIFICATION_TYPE": "U", "NORAD_CAT_ID": 31385, "ELEMENT_SET_NO": 999, "REV_AT_EPOCH": 98734, "BSTAR": 9.4512273e-05, "MEAN_MOTION_DOT": 3.06e-06, "MEAN_MOTION_DDOT": 0}, "tle": {"line1": "1 31385U 99025BSR 25355.04061278  .00000306  00000+0  94512-4 0  9996", "line2": "2 31385  98.9535  85.6264 0134243  30.9837 145.5330 14.44006366987345"}}, "geometry": {"type": "Point", "coordinates": [102.72715896775638, -59.98406747383495]}}, {"type": "Feature", "properties": {"norad_id": 31386, "name": "FENGYUN 1C DEB", "group": "fengyun-1c-debris", "lat": 8.11105245057682, "lon": -168.57547026525674, "alt_km": 932.6211791951646, "timestamp": "2025-12-22T05:49:03.781865+00:00", "meta": {"OBJECT_NAME": "FENGYUN 1C DEB", "OBJECT_ID": "1999-025BSS", "EPOCH": "2025-12-20T18:19:15.348576", "MEAN_MOTION": 13.8606632, "ECCENTRICITY": 0.01981363, "INCLINATION": 98.4383, "RA_OF_ASC_NODE": 8.8782, "ARG_OF_PERICENTER": 262.3033, "MEAN_ANOMALY": 95.5586, "EPHEMERIS_TYPE": 0, "CLASSIFICATION_TYPE": "U", "NORAD_CAT_ID": 31386, "ELEMENT_SET_NO": 999, "REV_AT_EPOCH": 93973, "BSTAR": 0.0013892757, "MEAN_MOTION_DOT": 1.827e-05, "MEAN_MOTION_DDOT": 0}, "tle": {"line1": "1 31386U 99025BSS 25354.76337209  .00001827  00000+0  13893-2 0  9995", "line2": "2 31386  98.4383   8.8782 0198136 262.3033  95.5586 13.86066320939732"}}, "geometry": {"type": "Point", "coordinates": [-168.57547026525674, 8.11105245057682]}}, {"type": "Feature", "properties": {"norad_id": 31387, "name": "FENGYUN 1C DEB", "group": "fengyun-1c-debris", "lat": 30.48996479730542, "lon": -130.5058107727568, "alt_km": 911.63521666216, "timestamp": "2025-12-22T05:49:03.781875+00:00", "meta": {"OBJECT_NAME": "FENGYUN 1C DEB", "OBJECT_ID": "1999-025BST", "EPOCH": "2025-12-20T09:29:55.526784", "MEAN_MOTION": 14.13576399, "ECCENTRICITY": 0.02420474, "INCLINATION": 99.1679, "RA_OF_ASC_NODE": 233.0565, "ARG_OF_PERICENTER": 149.7208, "MEAN_ANOMALY": 211.8206, "EPHEMERIS_TYPE": 0, "CLASSIFICATION_TYPE": "U", "NORAD_CAT_ID": 31387, "ELEMENT_SET_NO": 999, "REV_AT_EPOCH": 96405, "BSTAR": 0.00013820354, "MEAN_MOTION_DOT": 2.96e-06, "MEAN_MOTION_DDOT": 0}, "tle": {"line1": "1 31387U 99025BST 25354.39578156  .00000296  00000+0  13820-3 0  9993", "line2": "2 31387  99.1679 233.0565 0242047 149.7208 211.8206 14.13576399964051"}}, "geometry": {"type": "Point", "coordinates": [-130.5058107727568, 30.48996479730542]}}, {"type": "Feature", "properties": {"norad_id": 31388, "name": "FENGYUN 1C DEB", "group": "fengyun-1c-debris", "lat": 42.74110393429064, "lon": -24.27238771261173, "alt_km": 886.6165851966043, "timestamp": "2025-12-22T05:49:03.781886+00:00", "meta": {"OBJECT_NAME": "FENGYUN 1C DEB", "OBJECT_ID": "1999-025BSU", "EPOCH": "2025-12-19T06:01:39.259776", "MEAN_MOTION": 14.07430503, "ECCENTRICITY": 0.0046847, "INCLINATION": 98.8051, "RA_OF_ASC_NODE": 341.048, "ARG_OF_PERICENTER": 182.5144, "MEAN_ANOMALY": 193.8091, "EPHEMERIS_TYPE": 0, "CLASSIFICATION_TYPE": "U", "NORAD_CAT_ID": 31388, "ELEMENT_SET_NO": 999, "REV_AT_EPOCH": 96533, "BSTAR": 0.00018398, "MEAN_MOTION_DOT": 2.7e-06, "MEAN_MOTION_DDOT": 0}, "tle": {"line1": "1 31388U 99025BSU 25353.25114884  .00000270  00000+0  18398-3 0  9999", "line2": "2 31388  98.8051 341.0480 0046847 182.5144 193.8091 14.07430503965334"}}, "geometry": {"type": "Point", "coordinates": [-24.27238771261173, 42.74110393429064]}}, {"type": "Feature", "properties": {"norad_id": 31389, "name": "FENGYUN 1C DEB", "group": "fengyun-1c-debris", "lat": 8.463639001272485, "lon": 161.1528330472438, "alt_km": 707.873304293862, "timestamp": "2025-12-22T05:49:03.781897+00:00", "meta": {"OBJECT_NAME": "FENGYUN 1C DEB", "OBJECT_ID": "1999-025BSV", "EPOCH": "2025-12-21T00:46:56.582112", "MEAN_MOTION": 14.61345369, "ECCENTRICITY": 0.00278736, "INCLINATION": 99.0415, "RA_OF_ASC_NODE": 161.1895, "ARG_OF_PERICENTER": 164.2904, "MEAN_ANOMALY": 323.5601, "EPHEMERIS_TYPE": 0, "CLASSIFICATION_TYPE": "U", "NORAD_CAT_ID": 31389, "ELEMENT_SET_NO": 999, "REV_AT_EPOCH": 96618, "BSTAR": 0.0030289089, "MEAN_MOTION_DOT": 0.00015027, "MEAN_MOTION_DDOT": 0}, "tle": {"line1": "1 31389U 99025BSV 25355.03259933  .00015027  00000+0  30289-2 0  9991", "line2": "2 31389  99.0415 161.1895 0027873 164.2904 323.5601 14.61345369966180"}}, "geometry": {"type": "Point", "coordinates": [161.1528330472438, 8.463639001272485]}}, {"type": "Feature", "properties": {"norad_id": 31410, "name": "FENGYUN 1C DEB", "group": "fengyun-1c-debris", "lat": -78.61948112972735, "lon": -72.43248636185017, "alt_km": 671.5858062162561, "timestamp": "2025-12-22T05:49:03.781907+00:00", "meta": {"OBJECT_NAME": "FENGYUN 1C DEB", "OBJECT_ID": "1999-025BSW", "EPOCH": "2025-12-20T05:13:12.226368", "MEAN_MOTION": 14.44808425, "ECCENTRICITY": 0.01103757, "INCLINATION": 98.8361, "RA_OF_ASC_NODE": 156.0704, "ARG_OF_PERICENTER": 264.2219, "MEAN_ANOMALY": 272.3405, "EPHEMERIS_TYPE": 0, "CLASSIFICATION_TYPE": "U", "NORAD_CAT_ID": 31410, "ELEMENT_SET_NO": 999, "REV_AT_EPOCH": 97859, "BSTAR": 0.00059903086, "MEAN_MOTION_DOT": 2.19e-05, "MEAN_MOTION_DDOT": 0}, "tle": {"line1": "1 31410U 99025BSW 25354.21750262  .00002190  00000+0  59903-3 0  9998", "line2": "2 31410  98.8361 156.0704 0110375 264.2219 272.3405 14.44808425978593"}}, "geometry": {"type": "Point", "coordinates": [-72.43248636185017, -78.61948112972735]}}]}